[{"OBJECT_NAME":"ION SCV-015","OBJECT_ID":"2023-185H","EPOCH":"2026-03-09T22:36:51.209568","MEAN_MOTION":15.3163624,"ECCENTRICITY":0.00109059,"INCLINATION":97.5772,"RA_OF_ASC_NODE":155.3582,"ARG_OF_PERICENTER":92.3805,"MEAN_ANOMALY":267.8685,"EPHEMERIS_TYPE":0,"CLASSIFICATION_TYPE":"U","NORAD_CAT_ID":58469,"ELEMENT_SET_NO":999,"REV_AT_EPOCH":12588,"BSTAR":0.00030895808,"MEAN_MOTION_DOT":9.376e-5,"MEAN_MOTION_DDOT":0},{"OBJECT_NAME":"STARLINK-32888","OBJECT_ID":"2025-029U","EPOCH":"2026-03-09T21:09:15.086304","MEAN_MOTION":15.30210062,"ECCENTRICITY":8.367e-5,"INCLINATION":53.1567,"RA_OF_ASC_NODE":231.814,"ARG_OF_PERICENTER":75.5148,"MEAN_ANOMALY":284.5946,"EPHEMERIS_TYPE":0,"CLASSIFICATION_TYPE":"U","NORAD_CAT_ID":62966,"ELEMENT_SET_NO":999,"REV_AT_EPOCH":6134,"BSTAR":0.0014685907,"MEAN_MOTION_DOT":0.00043404,"MEAN_MOTION_DDOT":0}]
